{"type":"FeatureCollection","features":[{"type":"Feature","properties":{"name":"Castro","comuna":"Castro","cut":"10201","metro":null,"es_bbox":false},"geometry":{"type":"Polygon","coordinates":[[[-73.7356,-42.5513],[-73.7353,-42.5452],[-73.7435,-42.5367],[-73.7656,-42.531],[-73.7825,-42.5339],[-73.7855,-42.5235],[-73.7719,-42.5228],[-73.764,-42.5157],[-73.7526,-42.5165],[-73.7505,-42.5077],[-73.7372,-42.5001],[-73.7343,-42.482],[-73.7287,-42.4697],[-73.7344,-42.4647],[-73.7239,-42.4582],[-73.7301,-42.452],[-73.7297,-42.4326],[-73.7333,-42.4279],[-73.7504,-42.4308],[-73.7525,-42.4359],[-73.7446,-42.4462],[-73.7534,-42.4498],[-73.7531,-42.4585],[-73.746,-42.4699],[-73.7588,-42.4699],[-73.7606,-42.4849],[-73.7733,-42.4977],[-73.7815,-42.5004],[-73.795,-42.5162],[-73.7972,-42.5246],[-73.8067,-42.5202],[-73.8152,-42.5231],[-73.8421,-42.5072],[-73.8453,-42.5013],[-73.8467,-42.50107264957265],[-73.8467,-42.384],[-73.74774285714285,-42.384],[-73.7468,-42.3845],[-73.7232,-42.3849],[-73.7121,-42.39097235294117],[-73.7121,-42.5586],[-73.73054214285715,-42.5586],[-73.7356,-42.5513]]]}}]}