{"type":"FeatureCollection","features":[{"type":"Feature","properties":{"cut":10201,"comuna":"CASTRO"},"geometry":{"type":"MultiPolygon","coordinates":[[[[-73.4022816019999,-42.61715370199994],[-73.40284825899994,-42.615824302999954],[-73.40692410499992,-42.61045530699994],[-73.40865056099994,-42.61165901399994],[-73.40942300299992,-42.61579872199991],[-73.41427872899993,-42.61850012699995],[-73.4022816019999,-42.61715370199994]]],[[[-73.49597123699994,-42.60238354099994],[-73.50182750899995,-42.603055689999906],[-73.50665701699995,-42.60596793299993],[-73.50764926099993,-42.61142438799993],[-73.5007907509999,-42.619255377999934],[-73.5003052969999,-42.61709672499995],[-73.4948972919999,-42.614711395999905],[-73.49232137699994,-42.614785584999936],[-73.48799588299994,-42.61888907799994],[-73.48600417999995,-42.621893094999905],[-73.48667392699991,-42.62532850799994],[-73.48245567599992,-42.62898743099993],[-73.48284906499993,-42.638804027999925],[-73.48158237599995,-42.64292972299995],[-73.48296235299995,-42.64113792499995],[-73.48678546499991,-42.63978815999991],[-73.48434093799995,-42.63940012499995],[-73.48385295399993,-42.63748902499992],[-73.49426906899993,-42.62768896299991],[-73.4968647579999,-42.622792587999925],[-73.50528794399992,-42.61985447799992],[-73.52731369599991,-42.61607832499993],[-73.53152505399993,-42.61781640999993],[-73.53291251199994,-42.62055383199993],[-73.54405605999995,-42.62751313199993],[-73.54376393699994,-42.62892777499991],[-73.53727713599994,-42.63125857499995],[-73.5308334149999,-42.63841195899994],[-73.52995612299992,-42.64261523399995],[-73.53121601899994,-42.64638665099994],[-73.49500582199994,-42.64145890499992],[-73.48932471899991,-42.642280151999955],[-73.48079254099991,-42.64841253399993],[-73.47153728299992,-42.64828939499995],[-73.4375160859999,-42.632777836999935],[-73.42735213499992,-42.6263979979999],[-73.42261367399993,-42.621632022999904],[-73.42276414399993,-42.619535836999944],[-73.43634301499992,-42.61657912599992],[-73.45353107699992,-42.615898425999944],[-73.46072170399992,-42.611906818999955],[-73.49597123699994,-42.60238354099994]]],[[[-73.49695242899992,-42.5483802089999],[-73.51161073199995,-42.55072066199995],[-73.52151878899991,-42.55599111399994],[-73.52035064599994,-42.55764655799993],[-73.52102847899994,-42.559118708999904],[-73.5281241269999,-42.564014537999924],[-73.52903009999994,-42.565930840999954],[-73.52598966499994,-42.56968308499995],[-73.52672647199995,-42.572898522999935],[-73.53921609299994,-42.58105535099992],[-73.5389849469999,-42.58332178899991],[-73.5406195619999,-42.58628742099995],[-73.53902771399993,-42.58912187099992],[-73.54177306699995,-42.5920566179999],[-73.54029301499992,-42.59773373399992],[-73.53656383899994,-42.599559291999924],[-73.53065456699994,-42.5979887389999],[-73.52356330099991,-42.60028851099992],[-73.5200820469999,-42.59914492199994],[-73.51561768399995,-42.603508839999904],[-73.51190714499995,-42.598233026999935],[-73.5103589119999,-42.59248542599994],[-73.50676935999991,-42.5884402609999],[-73.50823957099993,-42.57831023299991],[-73.50588314099991,-42.56663991399995],[-73.49861526399991,-42.55825532099993],[-73.4909801899999,-42.552900285999954],[-73.49177891199992,-42.549322100999916],[-73.49695242899992,-42.5483802089999]]],[[[-73.83670946899991,-42.35352123799993],[-73.8396984229999,-42.351814271999956],[-73.83941872399993,-42.353534543999956],[-73.84553203899992,-42.35339105199995],[-73.84550616299992,-42.355276885999956],[-73.85110927199992,-42.35732563899995],[-73.85000371199993,-42.359832439999934],[-73.85443384799993,-42.36076463199993],[-73.85267719399991,-42.36238952299993],[-73.85704390799992,-42.3635088069999],[-73.85715624099993,-42.36519044699992],[-73.85323530199992,-42.36470696099991],[-73.85258929899993,-42.36709674699995],[-73.8529201579999,-42.36853648399995],[-73.85639513299992,-42.37024261799991],[-73.85337453999995,-42.37054755699995],[-73.85401013899991,-42.37523635899993],[-73.85853010299991,-42.37966758899995],[-73.85779077899991,-42.38122971899992],[-73.8541706019999,-42.38174302199991],[-73.85425222099991,-42.38733216499992],[-73.86129176599991,-42.38722879399995],[-73.86207016599991,-42.38530126799992],[-73.86372997799992,-42.38663560599991],[-73.86376932499991,-42.38381961399995],[-73.86874082899993,-42.38308641599991],[-73.87482151499995,-42.38640286899994],[-73.87470967299993,-42.38995262499992],[-73.87346665599995,-42.38989725099992],[-73.8727108349999,-42.391606622999916],[-73.87518400199991,-42.39155243599993],[-73.8764158429999,-42.393032439999956],[-73.87431375699992,-42.39476120799992],[-73.87647484999991,-42.394777853999926],[-73.87572903999995,-42.39604462099993],[-73.87762305399991,-42.39679513099992],[-73.87614075199991,-42.39880485899994],[-73.88019364999991,-42.40037075399994],[-73.87842024499992,-42.402854454999954],[-73.88307690799991,-42.40754244999994],[-73.88286274199993,-42.41006650899993],[-73.8810390619999,-42.41147614999994],[-73.88243019499993,-42.41534873199993],[-73.88098760399993,-42.419112612999925],[-73.88259880999993,-42.42133926699995],[-73.88167965799994,-42.421848138999906],[-73.88364750799991,-42.425474161999944],[-73.88334425399995,-42.42826301799994],[-73.88875046999993,-42.43378660299993],[-73.90686165599993,-42.43319526899995],[-73.9119015469999,-42.43434193699994],[-73.91538855999994,-42.4322225919999],[-73.9237125809999,-42.431990355999915],[-73.93734956299994,-42.435692916999926],[-73.9444964029999,-42.43558333999994],[-73.9550599559999,-42.43842241099992],[-73.97529876399994,-42.43666887799992],[-73.98336729999994,-42.43336803599993],[-73.99727559199994,-42.43306727699991],[-74.00636644499991,-42.442908572999954],[-74.0112453449999,-42.44122185999993],[-74.01132940199994,-42.445590420999906],[-74.00687852599992,-42.448694979999914],[-74.00937935699994,-42.45103562499992],[-74.02522930499993,-42.44937935899992],[-74.03213483099995,-42.45422448399995],[-74.04885028399991,-42.45761931699991],[-74.0505993079999,-42.45993630299995],[-74.05322002999992,-42.4584172079999],[-74.05515039799991,-42.45948679799994],[-74.05839253199991,-42.458815717999926],[-74.07290052999991,-42.46068091099994],[-74.07584297799991,-42.45976177599994],[-74.0859083229999,-42.46141809599993],[-74.09943327499991,-42.46069491199995],[-74.10017415499993,-42.46217698999993],[-74.10673997299995,-42.46513685799994],[-74.12582445699991,-42.46225415999993],[-74.13329013099991,-42.458875287999945],[-74.13314414399991,-42.45627573199994],[-74.1356940789999,-42.45622257899993],[-74.14259833499995,-42.45275919699992],[-74.14553035499995,-42.453432868999926],[-74.14677556599992,-42.45243347399992],[-74.1516952419999,-42.45731473099994],[-74.15956178899995,-42.4587584919999],[-74.1619053679999,-42.460920492999946],[-74.1686018979999,-42.4616276669999],[-74.16992360699993,-42.46406753499991],[-74.17320493699992,-42.464724591999925],[-74.1712914659999,-42.46850485099992],[-74.17496041299995,-42.470509285999924],[-74.17507195499991,-42.47273587899991],[-74.17793688799992,-42.47086004999994],[-74.18137427099992,-42.470909159999906],[-74.1788978109999,-42.47301682299991],[-74.17768215399991,-42.481604173999926],[-74.18458923199995,-42.4886195279999],[-74.18258406399991,-42.49087470799992],[-74.18327369699995,-42.49357686499991],[-74.18597835199995,-42.494802885999945],[-74.18793402999995,-42.497784173999946],[-74.19198257599993,-42.49744805499995],[-74.19133806899993,-42.49823601899993],[-74.19277521299995,-42.50081280499995],[-74.19073864599994,-42.502545565999924],[-74.19125904399993,-42.5038956059999],[-74.18811517799992,-42.503360045999955],[-74.18576882499991,-42.50748414299994],[-74.1823116459999,-42.50771423999993],[-74.18184192699994,-42.505274190999955],[-74.17800108199992,-42.50272058199994],[-74.17915355699995,-42.50231007299993],[-74.17777051399992,-42.500985311999955],[-74.17329613499993,-42.50301995199993],[-74.16243500399992,-42.50319775299994],[-74.15567490199993,-42.50245470099992],[-74.14701418399994,-42.499855434999915],[-74.14635277499991,-42.49871127799992],[-74.13999704699995,-42.50486424299993],[-74.13317251699993,-42.50746952999992],[-74.12894925699993,-42.5076086169999],[-74.12414857199991,-42.50126347799994],[-74.12281257199993,-42.494426871999906],[-74.11517879099995,-42.49069382199991],[-74.10434060599994,-42.48806999599992],[-74.10251544999994,-42.485619647999954],[-74.07653732499995,-42.49583296499992],[-74.05998737599992,-42.49411789399994],[-74.04017485499992,-42.49473717199993],[-74.02197173499991,-42.499968715999955],[-74.01980420599995,-42.49990066599992],[-74.01796396899994,-42.49456577199993],[-74.01978412299991,-42.48781326499994],[-73.86810554599992,-42.48637198799992],[-73.86549609199994,-42.487733068999944],[-73.8633020119999,-42.49344798099992],[-73.85697651899994,-42.499414395999906],[-73.84533242799995,-42.50133295199993],[-73.84212796199995,-42.50721736899993],[-73.83532725599991,-42.50888655099993],[-73.83083007599993,-42.51470346199994],[-73.8239126549999,-42.516938128999925],[-73.81800757899993,-42.521830492999925],[-73.8147490209999,-42.523017102999916],[-73.80710357799995,-42.520123490999936],[-73.80448751299991,-42.522964533999925],[-73.79933545199992,-42.522879143999944],[-73.79719303399992,-42.52456775199994],[-73.79503827099995,-42.51616155699992],[-73.79043407199993,-42.51236389999991],[-73.7891779059999,-42.50829153199993],[-73.78695697599994,-42.507119376999924],[-73.78559523699994,-42.51029407499993],[-73.78433959599994,-42.5057903039999],[-73.78221774399992,-42.5040787019999],[-73.78047469199993,-42.50428311299993],[-73.78165335299991,-42.500507959999936],[-73.77724425699995,-42.499217819999956],[-73.77409247299994,-42.50171896699993],[-73.77464430599991,-42.49995824999991],[-73.7732808049999,-42.497660253999925],[-73.76939622999993,-42.49834596699992],[-73.76936392599993,-42.49316689099993],[-73.76756783199994,-42.49280573199991],[-73.76726404399994,-42.49060903499992],[-73.77212646399994,-42.486401265999916],[-73.77198478999992,-42.4812778349999],[-73.76468951699991,-42.48552955699995],[-73.7613108459999,-42.48532116699994],[-73.75948249299995,-42.483625952999944],[-73.75965338799995,-42.481275972999924],[-73.75832689799995,-42.4808694539999],[-73.76032971899991,-42.479705037999906],[-73.75993951599992,-42.476989732999925],[-73.76450239799993,-42.47128840599993],[-73.76679047399995,-42.46455180999993],[-73.7535019849999,-42.47460813899994],[-73.74925791399994,-42.47621632399995],[-73.74736542799991,-42.47545268099992],[-73.74603961799994,-42.46988164699991],[-73.74729559299993,-42.46465854699994],[-73.7533103589999,-42.457379947999925],[-73.74936616799994,-42.457719718999954],[-73.74878029299992,-42.45664163899994],[-73.7536506379999,-42.44773397499995],[-73.74858205699991,-42.44857931999991],[-73.74742890699991,-42.446797088999915],[-73.74457758699992,-42.44636963799991],[-73.75316299199994,-42.438101495999945],[-73.75234068399993,-42.43665162199994],[-73.75364356599994,-42.43620650299994],[-73.75119318599991,-42.4324469309999],[-73.75371576899994,-42.43214117399992],[-73.7557240509999,-42.42675951599995],[-73.75374559199992,-42.42791327899994],[-73.75278694899993,-42.43058657699993],[-73.74755549499992,-42.43193443399991],[-73.74565911099995,-42.43570062899994],[-73.74403954399992,-42.43484085199992],[-73.74468598599992,-42.43321338399994],[-73.74260454699993,-42.43037625899996],[-73.74608127199991,-42.42836102699994],[-73.73943311199992,-42.429810080999914],[-73.73851612099992,-42.42912455699991],[-73.7397693719999,-42.42607187099992],[-73.73833702899992,-42.42782575299992],[-73.73454728299993,-42.42892320499993],[-73.73535654699992,-42.42623490299991],[-73.73072698499993,-42.4308127029999],[-73.72846729899993,-42.42983754599993],[-73.72894803199995,-42.42875768099992],[-73.72650095299991,-42.42972565799994],[-73.72723424199995,-42.42870714199995],[-73.72570948599991,-42.427726580999945],[-73.72560727399991,-42.43029659699994],[-73.7297099349999,-42.432602592999956],[-73.72994249399994,-42.43959815699992],[-73.73132693199994,-42.440243894999924],[-73.72899593999995,-42.44841781799994],[-73.73009682999992,-42.452009810999925],[-73.72524654999995,-42.455175519999955],[-73.72325033999994,-42.45941301599993],[-73.72895486399995,-42.459543968999924],[-73.7343749389999,-42.46466517899995],[-73.7302530259999,-42.46703762399994],[-73.72874946099995,-42.46969565699993],[-73.7297503769999,-42.47257057699994],[-73.72837308899994,-42.473527919999924],[-73.73652032699994,-42.47811639199995],[-73.73249380099992,-42.480318853999904],[-73.7342792359999,-42.481977626999935],[-73.73344935999995,-42.48911448599995],[-73.73490032699993,-42.49624951599992],[-73.73905832999992,-42.50170776199991],[-73.7473752329999,-42.50491494499994],[-73.75072405499992,-42.50788285199991],[-73.7508924089999,-42.513792408999905],[-73.74905134399995,-42.515771582999946],[-73.74535635699993,-42.516780343999926],[-73.7458768489999,-42.51780368199991],[-73.74888367499995,-42.51590033399992],[-73.75634684099992,-42.516850624999904],[-73.76397687899993,-42.51567689299992],[-73.77416061699995,-42.523769813999934],[-73.78545277299992,-42.52353433899992],[-73.78655973199994,-42.524644758999955],[-73.78463587499994,-42.52657859699991],[-73.78655869699992,-42.52949429499995],[-73.78403913199992,-42.53341205999993],[-73.76560679699992,-42.53100858499994],[-73.75433796399994,-42.53547500499991],[-73.74353481199995,-42.53671689799995],[-73.7415998649999,-42.53911817799991],[-73.73910543499994,-42.539320397999916],[-73.73631211199995,-42.54286935999994],[-73.73525931699993,-42.54521271199991],[-73.7356304939999,-42.55133612199995],[-73.7340638359999,-42.555402863999916],[-73.73233859299995,-42.555784537999955],[-73.72648054399991,-42.56239721999992],[-73.72516340999994,-42.566281989999936],[-73.72062538499995,-42.568806999999936],[-73.7178614959999,-42.56544854099991],[-73.70767321399995,-42.56586990199992],[-73.7093410199999,-42.5641425149999],[-73.70763741399992,-42.56159184799992],[-73.70751482599991,-42.56306737999995],[-73.69977602299991,-42.563209456999914],[-73.68715933899995,-42.55911663099994],[-73.6871535599999,-42.556450912999935],[-73.68989119899993,-42.55499619099993],[-73.68888343599991,-42.55357092299994],[-73.67763506299991,-42.55301401199995],[-73.6769755219999,-42.54981841499995],[-73.6737174829999,-42.54952859399992],[-73.67285730399993,-42.54780306799995],[-73.6673953639999,-42.54935167199994],[-73.65815200499992,-42.54759576399994],[-73.64729245399991,-42.54908006399995],[-73.64098040999994,-42.54700612799991],[-73.63974638399992,-42.545433517999925],[-73.63920985699991,-42.53887557799993],[-73.6331764279999,-42.54101013099995],[-73.63579236399994,-42.53877640099995],[-73.6391092049999,-42.53842860499992],[-73.63917922099995,-42.533066601999906],[-73.63646142399995,-42.53149883499992],[-73.6377332589999,-42.5304877879999],[-73.63708248299992,-42.528520864999905],[-73.63061375299992,-42.523801342999946],[-73.62843801999992,-42.52360421399993],[-73.6302737979999,-42.52734549099995],[-73.62681230599992,-42.53289653899992],[-73.61678626999992,-42.53628361799991],[-73.61017627199993,-42.53659537099992],[-73.60770658299992,-42.53498490499993],[-73.59916291199994,-42.533930675999954],[-73.59142067899995,-42.53437608999991],[-73.58641903299991,-42.531239082999946],[-73.57662472399994,-42.53422475299993],[-73.57799200699992,-42.53054944099995],[-73.58483025099991,-42.52489304099993],[-73.59500735199993,-42.52131248099994],[-73.59830552999995,-42.517615547999924],[-73.61432740799995,-42.50690911599992],[-73.62495776299994,-42.50426794099991],[-73.62938581499992,-42.50677052599991],[-73.62934331699995,-42.50871523699993],[-73.63115016599994,-42.5109071949999],[-73.63483308299993,-42.511464453999906],[-73.63527923499993,-42.50658871199994],[-73.63736403399992,-42.50310132199991],[-73.64660707199994,-42.49882961399993],[-73.65199416899992,-42.49803307299993],[-73.65733378499993,-42.491877349999925],[-73.66886661599995,-42.48344749599994],[-73.67236612799991,-42.48369972699993],[-73.68382046599993,-42.479680232999954],[-73.68528559899994,-42.47649102199995],[-73.68520824299992,-42.46903327799993],[-73.68713825999993,-42.46806477599995],[-73.68440844899993,-42.46783534399992],[-73.67955448499993,-42.46312356199991],[-73.67758390199992,-42.46511812199992],[-73.6748911219999,-42.46508701699992],[-73.67375633499995,-42.46053950999993],[-73.6718362279999,-42.46157994799995],[-73.66121270899993,-42.45969571799992],[-73.66041303299994,-42.452706934999924],[-73.65935851699993,-42.453932891999955],[-73.6554471419999,-42.453400760999955],[-73.6576941589999,-42.446947474999945],[-73.65334302799994,-42.44699099099995],[-73.64601137299991,-42.442721441999936],[-73.64483420399995,-42.438844064999955],[-73.64086926499994,-42.4358117079999],[-73.64621724599994,-42.42521668799992],[-73.65796771899994,-42.41938855199993],[-73.66442518299993,-42.41135426799991],[-73.66786573999991,-42.410002910999935],[-73.67251637899994,-42.40190211099991],[-73.6712261429999,-42.40024360099994],[-73.67206939499994,-42.39803343999995],[-73.67024154899991,-42.396197575999906],[-73.67641815499991,-42.39898882299991],[-73.68910450099992,-42.39893648399993],[-73.70617072599993,-42.39417268099993],[-73.71757099399991,-42.393760442999906],[-73.7177678729999,-42.39121399299995],[-73.7152502699999,-42.38870469299991],[-73.71618968299993,-42.38734866999994],[-73.72318276699991,-42.38485209299995],[-73.7321440689999,-42.385942851999914],[-73.73966655599992,-42.38459045199994],[-73.7396311359999,-42.386871378999956],[-73.7468437089999,-42.38451106499991],[-73.75336477499991,-42.380983159999914],[-73.76168733499992,-42.368677851999905],[-73.76813057899994,-42.362713320999944],[-73.77410168499995,-42.35972453499994],[-73.77807571799991,-42.36161487699991],[-73.7910393219999,-42.360761829999944],[-73.79185194999991,-42.35838626299994],[-73.7941980029999,-42.357777222999914],[-73.79415838099993,-42.354155670999944],[-73.79912066599991,-42.35390340799995],[-73.80266654999991,-42.357765582999946],[-73.80416262199992,-42.357866660999946],[-73.8053264429999,-42.35600615599992],[-73.80798203899991,-42.35805222699992],[-73.81097537199992,-42.35477791399995],[-73.81279302599995,-42.355975634999936],[-73.81630695299992,-42.35582093599993],[-73.82113961699991,-42.353648697999915],[-73.82106855199993,-42.35636266799992],[-73.82870941099992,-42.35570952699993],[-73.82844684199995,-42.35780319599991],[-73.82995867799991,-42.35979684699993],[-73.83236360899991,-42.35791041899995],[-73.8306138499999,-42.35528139599995],[-73.8393012809999,-42.35693533199992],[-73.83897523599995,-42.354563206999956],[-73.83670946899991,-42.35352123799993]]]]}},{"type":"Feature","properties":{"cut":10203,"comuna":"CHONCHI"},"geometry":{"type":"MultiPolygon","coordinates":[[[[-74.1667688679999,-42.82018851399994],[-74.16904110399992,-42.82036261899992],[-74.16754772599995,-42.82145942299991],[-74.16861562499992,-42.823358294999935],[-74.16742526199994,-42.823178544999905],[-74.1667688679999,-42.82018851399994]]],[[[-74.1699413369999,-42.768358802999956],[-74.16924655399993,-42.76564314399991],[-74.17010742899993,-42.76507304099994],[-74.17114236599991,-42.76599908599991],[-74.1699413369999,-42.768358802999956]]],[[[-74.15925659099992,-42.71341082299995],[-74.16086271299991,-42.71248603399994],[-74.16143253999991,-42.71364290699995],[-74.15966356799993,-42.71464305599994],[-74.15925659099992,-42.71341082299995]]],[[[-73.74379960499994,-42.57531781599994],[-73.75377008499993,-42.571099526999944],[-73.74891984299995,-42.575797105999925],[-73.74379960499994,-42.57531781599994]]],[[[-74.19667355199994,-42.51418227399995],[-74.1979780769999,-42.513133231999916],[-74.19857282399994,-42.514578317999906],[-74.19667355199994,-42.51418227399995]]],[[[-74.10249796099993,-42.485619510999925],[-74.10434060599994,-42.48806999599992],[-74.11517879099995,-42.49069382199991],[-74.12281257199993,-42.494426871999906],[-74.12414857199991,-42.50126347799994],[-74.12872396699993,-42.50756187499991],[-74.13317251699993,-42.50746952999992],[-74.13999704699995,-42.50486424299993],[-74.14635277499991,-42.49871127799992],[-74.14701418399994,-42.499855434999915],[-74.15567490199993,-42.50245470099992],[-74.16243500399992,-42.50319775299994],[-74.17329613499993,-42.50301995199993],[-74.1775449729999,-42.50095667699992],[-74.17915355699995,-42.50231007299993],[-74.17800108199992,-42.50272058199994],[-74.18184192699994,-42.505274190999955],[-74.18203278099992,-42.50757979899993],[-74.18576882499991,-42.50748414299994],[-74.1843150389999,-42.50919132699994],[-74.18564031799991,-42.512294237999924],[-74.19526010599992,-42.5143479699999],[-74.19523220199994,-42.516522668999926],[-74.1933354599999,-42.517346869999926],[-74.19206701099995,-42.52007118699993],[-74.18984071599994,-42.52059581399993],[-74.18836007099992,-42.519238973999904],[-74.18261049999995,-42.52271035599995],[-74.17943104799991,-42.52168799399993],[-74.17802973599993,-42.52242092599994],[-74.17735477499991,-42.52509079399994],[-74.1741734169999,-42.52813887399992],[-74.17566784999991,-42.53249040499992],[-74.17305063799995,-42.53341264799991],[-74.17271303899992,-42.53615696299994],[-74.16875033999992,-42.53290639799991],[-74.16418545499994,-42.53312100099993],[-74.15722507499993,-42.537054017999935],[-74.15732198899991,-42.538712345999954],[-74.15376379499992,-42.542129228999954],[-74.14677281599995,-42.55623101999993],[-74.14376634699994,-42.56391606799991],[-74.14381603499993,-42.56668568899994],[-74.13535790399993,-42.58740275699995],[-74.13216518399992,-42.60318801999995],[-74.13077192599991,-42.60245700799993],[-74.13003505899991,-42.61029531399993],[-74.12928936199995,-42.61076694499991],[-74.1290653559999,-42.60961702599991],[-74.1286671229999,-42.61304063499995],[-74.12690324099992,-42.61499042999992],[-74.12344087499991,-42.639571763999925],[-74.12116275299991,-42.66011398999996],[-74.12357949499994,-42.667057761999956],[-74.12197569699993,-42.668837579999945],[-74.12233064499992,-42.67190668099994],[-74.12371396599991,-42.67268724399992],[-74.12276501299993,-42.6852741859999],[-74.12452225999994,-42.69492350899992],[-74.12767633199991,-42.7027913469999],[-74.13115913299993,-42.70629843499995],[-74.14118115499991,-42.709661017999906],[-74.14598582799994,-42.70980500999991],[-74.15023061399995,-42.70830565299991],[-74.15448081499994,-42.70903503199992],[-74.15731434399993,-42.7122663639999],[-74.15693566499993,-42.715996340999936],[-74.15886079499995,-42.71756843999992],[-74.1531337099999,-42.717908967999904],[-74.15212032999995,-42.72013031999995],[-74.14534785599994,-42.72592901999991],[-74.14266185399993,-42.74402336199995],[-74.14348621499994,-42.747654208999904],[-74.1476272729999,-42.751188208999906],[-74.14300471799993,-42.753391550999936],[-74.1436652619999,-42.758556583999905],[-74.15016647599992,-42.76746180999993],[-74.1551249339999,-42.76696267999995],[-74.15809779699993,-42.76833538099993],[-74.15955989899993,-42.765626495999925],[-74.16061850199992,-42.765467659999956],[-74.16110736899992,-42.766997654999955],[-74.1642138279999,-42.76503468199991],[-74.1634032469999,-42.76663172199994],[-74.16772780999992,-42.7659382999999],[-74.16933051399991,-42.76884966999995],[-74.16867535699993,-42.771226837999905],[-74.16661506899993,-42.76916764199996],[-74.16414942099993,-42.769825074999915],[-74.16759899099992,-42.773618950999946],[-74.16618013399994,-42.775963533999914],[-74.16705257299992,-42.77893264799991],[-74.1642148379999,-42.77853824899995],[-74.16323365699992,-42.78110211399991],[-74.16591173299992,-42.78269758999994],[-74.16753302699993,-42.78618545499995],[-74.16514233499993,-42.78781152699992],[-74.16382829199995,-42.787049992999926],[-74.16199619199995,-42.78883766999991],[-74.15705177199993,-42.78868430999995],[-74.15547559299995,-42.792090223999935],[-74.15267066399991,-42.793397789999915],[-74.15283044799992,-42.811711300999946],[-74.15737507299991,-42.81554507499993],[-74.16054747899994,-42.81398344299993],[-74.16038816799994,-42.81553118799991],[-74.16183388299993,-42.81552827199994],[-74.15926522699993,-42.819021509999914],[-74.16576998699992,-42.821239362999904],[-74.16249427999992,-42.823525307999944],[-74.16620659799992,-42.82536496799992],[-74.16703896599995,-42.82768911399995],[-74.16576632999994,-42.826629004999916],[-74.16493214699994,-42.82776209299993],[-74.16184491899992,-42.82770287199992],[-74.16154183299994,-42.82984905899991],[-74.16389367999994,-42.83110763399992],[-74.1632822599999,-42.83545406799993],[-74.15679275199994,-42.83648006899995],[-74.15256615299995,-42.83886198599993],[-74.15126913499995,-42.84153214899993],[-74.15163187499991,-42.849467741999945],[-74.15022901599991,-42.85005527299995],[-74.14608246999995,-42.84778748699995],[-74.14328785599992,-42.85012807299995],[-74.14067035999994,-42.84770369899991],[-74.13625241999995,-42.850874320999935],[-74.13009598299993,-42.85209771099994],[-74.12745885099991,-42.851327187999914],[-74.12473780499994,-42.85302449499994],[-74.12470310799995,-42.854334681999944],[-74.1220143239999,-42.854397485999925],[-74.1214326729999,-42.85316596399991],[-74.11662790299994,-42.85173514799993],[-74.11594288799995,-42.85321901099991],[-74.10408388799993,-42.854605575999926],[-74.10227694999992,-42.85274470899992],[-74.09569167299992,-42.85199318399992],[-74.09086309299994,-42.852877952999904],[-74.08957187499993,-42.85124498099992],[-74.08263338599994,-42.85324476499994],[-74.07781728099991,-42.85333924799994],[-74.07440288299995,-42.851686971999925],[-74.06661077599995,-42.85203677499993],[-74.0650978189999,-42.85116698999991],[-74.0657586239999,-42.84782428299991],[-74.06003253299991,-42.846695405999924],[-74.04546802699991,-42.85096646499994],[-74.04010466599993,-42.849160173999906],[-74.03686578499992,-42.8546894129999],[-74.03460463399995,-42.85489949999993],[-74.02915613599993,-42.86101132899995],[-74.01986433899992,-42.85946932999991],[-74.01180731799991,-42.86081492999995],[-74.0102239229999,-42.81994187899994],[-74.01025315699991,-42.82309397499995],[-74.00651396299992,-42.82630329099993],[-74.00673363599992,-42.827443574999904],[-74.00473800899994,-42.82824354199994],[-74.00273083299993,-42.82729202399992],[-73.99717796199991,-42.832264058999954],[-73.98586253199994,-42.83546276299995],[-73.97698055799992,-42.83388650899991],[-73.97268648399995,-42.83813810399994],[-73.96528635499993,-42.83478475299995],[-73.94743312299994,-42.82970457399995],[-73.93749499699993,-42.83107229299992],[-73.92904398099995,-42.82933195399994],[-73.92262889799991,-42.82983311899994],[-73.9144234179999,-42.8330598199999],[-73.8875362359999,-42.836143714999935],[-73.88135190199995,-42.84126908799993],[-73.87614616799993,-42.84306288399995],[-73.87515883799995,-42.85386001899991],[-73.86770545799993,-42.853573845999904],[-73.8619997479999,-42.855744074999905],[-73.8453500629999,-42.86618095099993],[-73.8099971929999,-42.87662994599992],[-73.80483427699994,-42.87885514099992],[-73.80137957999995,-42.88192146199992],[-73.79602833799993,-42.88195989299993],[-73.79427537799995,-42.88347374499995],[-73.7878639779999,-42.88378438199993],[-73.78036126699993,-42.88154695499992],[-73.77949399699992,-42.88017858599994],[-73.77205175499995,-42.88119506499993],[-73.77056148299994,-42.87668518699991],[-73.77445637299991,-42.874162148999915],[-73.76139075399993,-42.86876039099991],[-73.75600296599993,-42.85953881599994],[-73.7418580019999,-42.853360480999925],[-73.73697337699991,-42.85404879399994],[-73.73576326799991,-42.852882776999934],[-73.73874242099993,-42.850682358999904],[-73.74803387299994,-42.85125711799992],[-73.75238542199992,-42.84948258199995],[-73.75084502199991,-42.84700587099991],[-73.74700208899992,-42.84644607699994],[-73.7432398059999,-42.84817435299993],[-73.74029477099992,-42.847016338999936],[-73.74328832799995,-42.84385690799991],[-73.74211722899992,-42.84333525399995],[-73.74250105999994,-42.84119173699992],[-73.73999379599991,-42.84023487199994],[-73.74522673299992,-42.838536853999926],[-73.7500863329999,-42.82914883899991],[-73.73844209399994,-42.82797663899993],[-73.73817805999994,-42.82580930899991],[-73.7339196719999,-42.82474664499995],[-73.72888024199995,-42.82094867299992],[-73.72623183199994,-42.81652136699995],[-73.72609329999995,-42.81348272899993],[-73.72075329599994,-42.812313858999914],[-73.71546086099994,-42.80712556799995],[-73.7163948779999,-42.764539569999954],[-73.70705146199992,-42.76783114099993],[-73.69261702699993,-42.766189381999936],[-73.6822388029999,-42.7678984339999],[-73.67673563999995,-42.767546334999906],[-73.66811305199991,-42.760689749999926],[-73.65692670099992,-42.76165985599994],[-73.65526399399994,-42.76073306899991],[-73.65475758499991,-42.75758190899995],[-73.65313496699991,-42.756942919999915],[-73.6442581579999,-42.75838412599995],[-73.64040626699995,-42.75577996399994],[-73.63435225699993,-42.75737942699993],[-73.62706906699992,-42.75259851699991],[-73.6234481429999,-42.74729693599994],[-73.61327409799992,-42.745382804999906],[-73.62011814999994,-42.73750077699992],[-73.62659714999995,-42.73239611699995],[-73.63120865899992,-42.725238077999904],[-73.6317660009999,-42.720962708999934],[-73.62971113599991,-42.70389554399992],[-73.6314450239999,-42.70152985999994],[-73.64741533699993,-42.69996805099993],[-73.65129582999992,-42.70552509299995],[-73.65878299399992,-42.70647539499993],[-73.66455198199992,-42.70454576599991],[-73.67328985299991,-42.696767629999954],[-73.6817134179999,-42.69364548099992],[-73.6825132109999,-42.68876476199995],[-73.67180586599994,-42.682476900999916],[-73.6754157869999,-42.67820061999993],[-73.6713939949999,-42.67176920499992],[-73.66884163199995,-42.67146040099993],[-73.66657463099995,-42.67275332299994],[-73.66200284799993,-42.67886420099995],[-73.6598816849999,-42.678605260999916],[-73.65593092299991,-42.67507387699993],[-73.65976825899992,-42.664645555999925],[-73.66296770899993,-42.66460190099991],[-73.66954021399994,-42.66804745499991],[-73.6909537439999,-42.66593828799995],[-73.69843494899993,-42.667203257999915],[-73.70535920899994,-42.66444952899991],[-73.72912832899993,-42.652135124999916],[-73.73823310599994,-42.64945723999995],[-73.74381548899993,-42.64359742699992],[-73.75189925199993,-42.64187017599994],[-73.75310042199993,-42.640560904999916],[-73.75223558499994,-42.6382505869999],[-73.75303391699993,-42.63656174699992],[-73.7602987809999,-42.631714719999934],[-73.76232396199993,-42.628968141999906],[-73.76049786699991,-42.62489859999994],[-73.7702289739999,-42.62086816099992],[-73.77000110299991,-42.61700677199991],[-73.77133722899993,-42.614876557999935],[-73.77553229599994,-42.61328812499994],[-73.78351743199994,-42.61505764599991],[-73.7880431769999,-42.611416128999906],[-73.78811408699994,-42.60724404299992],[-73.78544675899991,-42.602019785999914],[-73.78838082599992,-42.59616548099996],[-73.78468723599991,-42.59482436999991],[-73.78397234999994,-42.590513005999924],[-73.77745176499991,-42.5835956489999],[-73.77325321099994,-42.58316090099993],[-73.76751326699991,-42.57999580399991],[-73.75665051899995,-42.57840873999993],[-73.7601320899999,-42.57266677699994],[-73.75519366399993,-42.56281184799991],[-73.75141231299995,-42.559578217999956],[-73.75032258599992,-42.55272207799993],[-73.75556795099993,-42.546430209999926],[-73.7601528749999,-42.54395834199994],[-73.76351219199995,-42.54456199799995],[-73.76689714499992,-42.542590221999944],[-73.78538406099995,-42.54563941799995],[-73.79839665999992,-42.54409678799993],[-73.80056188099991,-42.545620604999954],[-73.8011664839999,-42.54172637599993],[-73.80504410299994,-42.538615697999944],[-73.80356450599993,-42.53679532499996],[-73.8030089259999,-42.53247930099991],[-73.79997824599991,-42.530620625999916],[-73.79735403699993,-42.524227226999926],[-73.79933545199992,-42.522879143999944],[-73.80448751299991,-42.522964533999925],[-73.80710357799995,-42.520123490999936],[-73.8147490209999,-42.523017102999916],[-73.81800757899993,-42.521830492999925],[-73.8239126549999,-42.516938128999925],[-73.83083007599993,-42.51470346199994],[-73.83532725599991,-42.50888655099993],[-73.84212796199995,-42.50721736899993],[-73.84533242799995,-42.50133295199993],[-73.85697651899994,-42.499414395999906],[-73.8633020119999,-42.49344798099992],[-73.86549609199994,-42.487733068999944],[-73.86810554599992,-42.48637198799992],[-74.01978412299991,-42.48781326499994],[-74.01796396899994,-42.49456577199993],[-74.01980420599995,-42.49990066599992],[-74.02197173499991,-42.499968715999955],[-74.04017485499992,-42.49473717199993],[-74.05998737599992,-42.49411789399994],[-74.07653732499995,-42.49583296499992],[-74.10249796099993,-42.485619510999925]]]]}},{"type":"Feature","properties":{"cut":10205,"comuna":"DALCAHUE"},"geometry":{"type":"Polygon","coordinates":[[[-73.83182500099991,-42.1520408369999],[-73.8353494189999,-42.15480414099994],[-73.84154946899992,-42.15378984899991],[-73.85618718899991,-42.16814449099991],[-73.86736347399994,-42.16998781399991],[-73.86580637499992,-42.173502233999955],[-73.8639668269999,-42.172297399999934],[-73.86261229899992,-42.17408693999994],[-73.86110435699993,-42.172925413999906],[-73.85754604099992,-42.17477227199993],[-73.8629423829999,-42.17938870699993],[-73.86218660999992,-42.180023081999934],[-73.8611274399999,-42.178842463999956],[-73.85977846599991,-42.18014462199994],[-73.85813405199991,-42.17930659599995],[-73.8568782179999,-42.183105808999926],[-73.8524923679999,-42.18372247699995],[-73.85389453199991,-42.18593802499993],[-73.84945012599991,-42.186164883999936],[-73.84535965799995,-42.184626229999935],[-73.84276099899995,-42.1861342169999],[-73.84723870399995,-42.18767105999996],[-73.84523556099992,-42.18955595099993],[-73.84551644699991,-42.19098952599995],[-73.8502230279999,-42.19131035399994],[-73.85073963899993,-42.19420846799994],[-73.85430941699991,-42.19693633399993],[-73.85412846499992,-42.19828055799991],[-73.85840896399992,-42.20044418899994],[-73.8586130619999,-42.20227756199995],[-73.85677581699991,-42.20465584999994],[-73.8578899069999,-42.20508500999995],[-73.85639348399991,-42.20681030399993],[-73.8578754959999,-42.20650034099992],[-73.85717092999994,-42.20760659699994],[-73.86103842099993,-42.2103901399999],[-73.8649725269999,-42.219106334999935],[-73.8717981129999,-42.22257754799995],[-73.87128159999992,-42.22342227199994],[-73.96087538299992,-42.24122604199994],[-73.96718171299995,-42.23207567999992],[-73.97238627299993,-42.22823023899991],[-73.97555337199992,-42.227562640999906],[-73.9793095949999,-42.2288064089999],[-73.99081947999991,-42.224733923999906],[-73.99996876799992,-42.21836229699994],[-74.00818745499993,-42.21454683199994],[-74.0190630649999,-42.214307736999956],[-74.02902273399991,-42.21717913599991],[-74.0327840779999,-42.21963939299991],[-74.0336799399999,-42.224486792999926],[-74.03778732299992,-42.22612118699993],[-74.0414571309999,-42.22531987199994],[-74.04702511999994,-42.22881714099992],[-74.05075267399991,-42.22554192399991],[-74.0581853249999,-42.22458902299991],[-74.0646893949999,-42.22211233099995],[-74.07120699899991,-42.22398517399995],[-74.07746113999991,-42.22885061899996],[-74.0901139469999,-42.227647308999906],[-74.09487428199992,-42.22537559299991],[-74.09817737999992,-42.219801498999914],[-74.1043412649999,-42.21911183299994],[-74.1064447679999,-42.217447930999924],[-74.10765316499993,-42.217934751999906],[-74.1064318409999,-42.22044882699993],[-74.11237223499995,-42.22417462199991],[-74.11913012899993,-42.2235271909999],[-74.12466443399995,-42.220000987999924],[-74.12955470599991,-42.22072357199994],[-74.13178352499995,-42.21857369199995],[-74.14074535799995,-42.217249617999926],[-74.1439208619999,-42.21879091199992],[-74.14518842899992,-42.22115549199992],[-74.14395766799993,-42.22307364399995],[-74.14513216199992,-42.22336159699995],[-74.14532821099993,-42.22561461099991],[-74.14967591899995,-42.22901524899993],[-74.1495209709999,-42.230909906999955],[-74.14715020999995,-42.232603481999945],[-74.1487826149999,-42.234903183999904],[-74.14762691599992,-42.23579071799992],[-74.14866885299995,-42.23857686799994],[-74.15244181699995,-42.23937934399993],[-74.16157932999994,-42.2464398109999],[-74.15915202399992,-42.249974979999934],[-74.16290206699995,-42.252915909999956],[-74.16345645899992,-42.25396467199994],[-74.1623629309999,-42.254780754999956],[-74.16393680499993,-42.25585947099995],[-74.1637301689999,-42.257506092999904],[-74.16777709699994,-42.26114250099994],[-74.17240903399994,-42.26840796499994],[-74.17003163299995,-42.2677153219999],[-74.16698554399994,-42.27009787999992],[-74.16722362899992,-42.27135596699992],[-74.16158000399992,-42.27201282199991],[-74.16213000699992,-42.27786633099993],[-74.15976862999992,-42.279600746999904],[-74.16060027999993,-42.28198895899993],[-74.15815503399995,-42.283574125999905],[-74.1602552629999,-42.28719197399994],[-74.15519821899994,-42.28610561799991],[-74.1514747889999,-42.29089189799993],[-74.14949219499994,-42.291462607999904],[-74.15063809599991,-42.296005676999926],[-74.1497446699999,-42.297322953999924],[-74.15229742799994,-42.30043995199992],[-74.1459918139999,-42.3031400239999],[-74.14653445999994,-42.305125404999956],[-74.14400441499993,-42.306943787999955],[-74.13995597799993,-42.3174551109999],[-74.1407639979999,-42.31888412699993],[-74.13953954099992,-42.320297903999915],[-74.14082404299995,-42.320658771999945],[-74.1392434739999,-42.32410074399991],[-74.14138852399992,-42.32722841899994],[-74.14410361799992,-42.3273252699999],[-74.14070862599993,-42.32874985199993],[-74.14012535599994,-42.33136173799994],[-74.1440184569999,-42.335731781999925],[-74.14775326199992,-42.33663769299994],[-74.14784551399993,-42.34020026699994],[-74.1491207819999,-42.34178579399992],[-74.14765183499992,-42.34392282299996],[-74.15008352099994,-42.34776393399994],[-74.14714160599993,-42.34956130499995],[-74.1483292879999,-42.351632511999924],[-74.14730832799995,-42.35603336899993],[-74.14914508399994,-42.357312358999934],[-74.14631445099991,-42.359263632999955],[-74.14835734899992,-42.35978316299992],[-74.14954861599995,-42.365263152999944],[-74.15103333099995,-42.36576498399995],[-74.15082968399992,-42.367303500999924],[-74.15353348699995,-42.370349509999926],[-74.15298362699991,-42.37144417999991],[-74.15732675599992,-42.37635742999993],[-74.15799183399992,-42.388227688999905],[-74.16084566599994,-42.39081981699991],[-74.16304378699994,-42.39020096599995],[-74.16405829699994,-42.393000215999905],[-74.16779161999995,-42.394238679999944],[-74.16631913099991,-42.397915919999946],[-74.1630852959999,-42.39747808299995],[-74.16209199299993,-42.400217641999916],[-74.1641990999999,-42.402245852999954],[-74.16866855799992,-42.401900102999946],[-74.17419708099993,-42.4036061619999],[-74.17358256599994,-42.40615942199992],[-74.17618161699994,-42.409235645999956],[-74.1820019829999,-42.41157834299992],[-74.18035538499993,-42.41384057899995],[-74.18270167899993,-42.41659963799992],[-74.18153223399992,-42.41878873899992],[-74.18457449999994,-42.4204449959999],[-74.18013299599994,-42.42234058199995],[-74.17942539899991,-42.42457799099992],[-74.18890810499994,-42.431908748999945],[-74.18713968499992,-42.434872671999926],[-74.18943325499993,-42.43549681299993],[-74.1894985799999,-42.43655997099995],[-74.18557664199994,-42.437279660999934],[-74.18553815299992,-42.438197988999946],[-74.1889570429999,-42.441077098999926],[-74.18747648099992,-42.44309293799995],[-74.19089591799991,-42.444598594999945],[-74.18613521099991,-42.44901829899993],[-74.1864828379999,-42.45257808699995],[-74.18442727799993,-42.45406745899993],[-74.1848441429999,-42.45556539899991],[-74.18060148799992,-42.458925853999915],[-74.18176130699993,-42.462324845999945],[-74.17970942599993,-42.46268392199994],[-74.17755122099993,-42.46529816499992],[-74.17793688799992,-42.47086004999994],[-74.17497309099991,-42.47266164599995],[-74.17496041299995,-42.470509285999924],[-74.1712914659999,-42.46850485099992],[-74.1732770449999,-42.46480089599993],[-74.16992360699993,-42.46406753499991],[-74.16871396199991,-42.46166873099992],[-74.1619053679999,-42.460920492999946],[-74.15956178899995,-42.4587584919999],[-74.1516952419999,-42.45731473099994],[-74.14677556599992,-42.45243347399992],[-74.14553035499995,-42.453432868999926],[-74.14259833499995,-42.45275919699992],[-74.1356940789999,-42.45622257899993],[-74.13314414399991,-42.45627573199994],[-74.13329013099991,-42.458875287999945],[-74.12582445699991,-42.46225415999993],[-74.1078069479999,-42.46511003599994],[-74.10203524099995,-42.46320160199991],[-74.09943327499991,-42.46069491199995],[-74.0859083229999,-42.46141809599993],[-74.07584297799991,-42.45976177599994],[-74.07290052999991,-42.46068091099994],[-74.05839253199991,-42.458815717999926],[-74.05515039799991,-42.45948679799994],[-74.05322002999992,-42.4584172079999],[-74.05057278099991,-42.45993116299991],[-74.04885028399991,-42.45761931699991],[-74.03213483099995,-42.45422448399995],[-74.02522930499993,-42.44937935899992],[-74.00937935699994,-42.45103562499992],[-74.00687852599992,-42.448694979999914],[-74.01132940199994,-42.445590420999906],[-74.0112453449999,-42.44122185999993],[-74.00636644499991,-42.442908572999954],[-73.99727559199994,-42.43306727699991],[-73.98336729999994,-42.43336803599993],[-73.97529876399994,-42.43666887799992],[-73.9550599559999,-42.43842241099992],[-73.9444964029999,-42.43558333999994],[-73.93734956299994,-42.435692916999926],[-73.9237125809999,-42.431990355999915],[-73.91538855999994,-42.4322225919999],[-73.9119015469999,-42.43434193699994],[-73.90686165599993,-42.43319526899995],[-73.88875046999993,-42.43378660299993],[-73.88334425399995,-42.42826301799994],[-73.88364750799991,-42.425474161999944],[-73.88167965799994,-42.421848138999906],[-73.88259880999993,-42.42133926699995],[-73.88098760399993,-42.419112612999925],[-73.88243019499993,-42.41534873199993],[-73.8810390619999,-42.41147614999994],[-73.88286274199993,-42.41006650899993],[-73.88307690799991,-42.40754244999994],[-73.87842024499992,-42.402854454999954],[-73.88019364999991,-42.40037075399994],[-73.87614075199991,-42.39880485899994],[-73.87762305399991,-42.39679513099992],[-73.87572903999995,-42.39604462099993],[-73.87647484999991,-42.394777853999926],[-73.87431375699992,-42.39476120799992],[-73.8764158429999,-42.393032439999956],[-73.87518400199991,-42.39155243599993],[-73.8727108349999,-42.391606622999916],[-73.87346665599995,-42.38989725099992],[-73.87470967299993,-42.38995262499992],[-73.87482151499995,-42.38640286899994],[-73.86874082899993,-42.38308641599991],[-73.86376932499991,-42.38381961399995],[-73.86372997799992,-42.38663560599991],[-73.86207016599991,-42.38530126799992],[-73.86129176599991,-42.38722879399995],[-73.85425222099991,-42.38733216499992],[-73.8541706019999,-42.38174302199991],[-73.85779077899991,-42.38122971899992],[-73.85853010299991,-42.37966758899995],[-73.85401013899991,-42.37523635899993],[-73.85337453999995,-42.37054755699995],[-73.85639513299992,-42.37024261799991],[-73.8529201579999,-42.36853648399995],[-73.85258929899993,-42.36709674699995],[-73.85323530199992,-42.36470696099991],[-73.85715624099993,-42.36519044699992],[-73.85706329699991,-42.36354706299994],[-73.85261350399992,-42.3623334479999],[-73.85446527399995,-42.36099993699992],[-73.85287926799992,-42.359745407999924],[-73.84986331599993,-42.359700296999904],[-73.85134306099991,-42.35784264599994],[-73.84970582199992,-42.356101854999906],[-73.84550616299992,-42.355276885999956],[-73.84527820599993,-42.35331596299994],[-73.83931908799991,-42.35350522999994],[-73.83986051199992,-42.351819450999926],[-73.83669326799992,-42.35362368199992],[-73.83897523599995,-42.354563206999956],[-73.8393012809999,-42.35693533199992],[-73.8306138499999,-42.35528139599995],[-73.83236360899991,-42.35791041899995],[-73.82995867799991,-42.35979684699993],[-73.82844684199995,-42.35780319599991],[-73.82870941099992,-42.35570952699993],[-73.82106855199993,-42.35636266799992],[-73.82099072199992,-42.353637112999934],[-73.81630695299992,-42.35582093599993],[-73.81279302599995,-42.355975634999936],[-73.81097537199992,-42.35477791399995],[-73.80798203899991,-42.35805222699992],[-73.8053264429999,-42.35600615599992],[-73.80416262199992,-42.357866660999946],[-73.80266654999991,-42.357765582999946],[-73.79912066599991,-42.35390340799995],[-73.79415838099993,-42.354155670999944],[-73.79412911999992,-42.35787587699991],[-73.79185194999991,-42.35838626299994],[-73.79108673299993,-42.360735725999916],[-73.78788435799993,-42.361673982999946],[-73.77792153999991,-42.36159686099995],[-73.77410168499995,-42.35972453499994],[-73.76321374499992,-42.36686163099995],[-73.75336477499991,-42.380983159999914],[-73.7468437089999,-42.38451106499991],[-73.7396311359999,-42.386871378999956],[-73.73966655599992,-42.38459045199994],[-73.7321440689999,-42.385942851999914],[-73.72318276699991,-42.38485209299995],[-73.71618968299993,-42.38734866999994],[-73.7152502699999,-42.38870469299991],[-73.7177678729999,-42.39121399299995],[-73.71757099399991,-42.393760442999906],[-73.70617072599993,-42.39417268099993],[-73.68910450099992,-42.39893648399993],[-73.68122706399993,-42.39930091699995],[-73.67641815499991,-42.39898882299991],[-73.67024154899991,-42.396197575999906],[-73.67086455599991,-42.39272855599995],[-73.66934801299993,-42.391585232999944],[-73.66714599199992,-42.39212251299995],[-73.6676424549999,-42.388539462999915],[-73.66573864199995,-42.3884092479999],[-73.66599985199991,-42.38568352199991],[-73.66436004699995,-42.383952569999906],[-73.65754017199993,-42.38148157199993],[-73.6483068519999,-42.38110822099992],[-73.64261745399995,-42.37857673599996],[-73.63664940199993,-42.371723423999924],[-73.6327669609999,-42.370166652999956],[-73.62899954399995,-42.36623113099995],[-73.6239103339999,-42.36466617499991],[-73.6159107339999,-42.36496612399992],[-73.60617913199991,-42.36247967499992],[-73.59851562799992,-42.365218575999904],[-73.58282371099995,-42.363102908999906],[-73.57789954899994,-42.35323906799994],[-73.57233123099991,-42.35138669699995],[-73.57332117599992,-42.348751300999936],[-73.56413300499992,-42.347875590999934],[-73.56280927599994,-42.346926896999946],[-73.56407946099995,-42.344227547999935],[-73.56050283399992,-42.340098535999914],[-73.5516473969999,-42.33563098399992],[-73.5455278689999,-42.33452401799991],[-73.5370988329999,-42.339230399999906],[-73.52838486699994,-42.34045173699991],[-73.52049186699992,-42.33968371099991],[-73.5143536089999,-42.34186029199992],[-73.50973937499992,-42.339341806999926],[-73.50752091899994,-42.34069083999992],[-73.50618583499994,-42.33968731099992],[-73.50415684799992,-42.34056143799995],[-73.50077817699992,-42.33976981799992],[-73.4953572419999,-42.3425401369999],[-73.47179557599992,-42.343516295999905],[-73.46036859999992,-42.33280406199992],[-73.44675927599991,-42.32771229999992],[-73.44272004899994,-42.320853589999956],[-73.44168367899994,-42.321019623999916],[-73.44087614799992,-42.32500273599993],[-73.4321608489999,-42.33046749199991],[-73.42182124899995,-42.32871357599993],[-73.41590833799995,-42.323088937999955],[-73.41273631899992,-42.32266681899995],[-73.40374770999995,-42.32370826999994],[-73.38430856299993,-42.33175281899992],[-73.3743016919999,-42.33282262599994],[-73.36028235899994,-42.338526250999905],[-73.35469074399992,-42.337252865999915],[-73.35538405299991,-42.33414230999995],[-73.3532400279999,-42.32993284299994],[-73.35409777699994,-42.326595003999955],[-73.3527005279999,-42.322207120999906],[-73.35645451999994,-42.31689353799993],[-73.3563374769999,-42.31340660899991],[-73.35883858699992,-42.30970052099991],[-73.3575474239999,-42.30572396799994],[-73.36016619199995,-42.29684296699992],[-73.3654354919999,-42.29767741199993],[-73.37638477999991,-42.29459538899994],[-73.37934325099991,-42.29541625399992],[-73.3793611019999,-42.293655860999934],[-73.38347035299995,-42.29178589999992],[-73.38219199499991,-42.29040998699992],[-73.40348639899992,-42.28155596999994],[-73.4065954109999,-42.28396006899993],[-73.41028372499994,-42.27962084399991],[-73.41380462599994,-42.278678957999944],[-73.41752826599992,-42.283823628999926],[-73.42171241299991,-42.28697204899993],[-73.43783457299992,-42.278015773999925],[-73.45312775399992,-42.272970577999956],[-73.4519596529999,-42.27108075299992],[-73.46255216799995,-42.26621412499992],[-73.46736790699993,-42.2675920179999],[-73.46856699299991,-42.26577314399992],[-73.47884867199991,-42.261081428999944],[-73.4856808799999,-42.25355604899994],[-73.49606195199993,-42.25032279499993],[-73.5063471389999,-42.25007128499993],[-73.5209741189999,-42.23663515699991],[-73.5476742589999,-42.22183567899992],[-73.54787145999995,-42.21928858199993],[-73.55025677499992,-42.2159973009999],[-73.54615321999995,-42.209902781999915],[-73.55463833099992,-42.209746184999915],[-73.5638219839999,-42.19911470599993],[-73.57900656299995,-42.200281538999945],[-73.58525310899995,-42.194711568999935],[-73.58919254199992,-42.19446287299991],[-73.6018136429999,-42.189736739999944],[-73.6067728349999,-42.18326603699995],[-73.60695290599995,-42.180812233999916],[-73.61166020199994,-42.181330310999954],[-73.61356697199994,-42.176838793999934],[-73.6175683909999,-42.17282082299994],[-73.6246775649999,-42.17156436899995],[-73.62601172099994,-42.173061866999944],[-73.63103259099995,-42.17358121199993],[-73.63427448999994,-42.17592993099993],[-73.64462797699991,-42.17693083599994],[-73.64884131499991,-42.1757692189999],[-73.65448168599994,-42.169823917999906],[-73.65784371699993,-42.17013799299991],[-73.65796308299991,-42.16853629499991],[-73.66097781399992,-42.16920645999994],[-73.66918185299994,-42.16677120499992],[-73.66977531399993,-42.165494709999905],[-73.67157565699995,-42.16601991899995],[-73.67260400499993,-42.1632842219999],[-73.6762818759999,-42.16299456299993],[-73.6766716379999,-42.161243878999926],[-73.6777600449999,-42.16142529399991],[-73.6774673619999,-42.163702722999915],[-73.67796018799993,-42.16280086499995],[-73.6799534079999,-42.16334132299994],[-73.68202689499992,-42.16518850999995],[-73.6832342969999,-42.16437879599994],[-73.67966696999991,-42.161484971999926],[-73.6868145759999,-42.16330138299992],[-73.6879885969999,-42.16292537499993],[-73.68657742799991,-42.16178529299992],[-73.68810254199991,-42.16147989199993],[-73.68956576799991,-42.16298981299991],[-73.69260261799991,-42.163292836999915],[-73.69898526399993,-42.160966413999915],[-73.70256636199991,-42.162680576999946],[-73.70313460799991,-42.16109246099995],[-73.70656265499991,-42.160118034999925],[-73.7070021259999,-42.16178795999991],[-73.7110530779999,-42.159030026999915],[-73.71017983299993,-42.161732645999905],[-73.71298277299991,-42.16135698799991],[-73.7147879019999,-42.16440510299992],[-73.71768183899991,-42.16514295499991],[-73.72077720499993,-42.163798983999925],[-73.7191209689999,-42.16565725999993],[-73.71068410499993,-42.16735509999995],[-73.7100225069999,-42.168440233999945],[-73.7114413729999,-42.1697532739999],[-73.7135069759999,-42.16721779499994],[-73.7186774239999,-42.16962873199992],[-73.72468581099992,-42.165420680999944],[-73.72299188499994,-42.17105809199995],[-73.71693496699993,-42.17762540399991],[-73.7159891309999,-42.18625570899991],[-73.72120371999995,-42.194728374999954],[-73.70875048199991,-42.250825566999936],[-73.7228849899999,-42.254995219999955],[-73.7181560009999,-42.25066790499994],[-73.71910009599992,-42.24873632099991],[-73.72134633999991,-42.25069540599992],[-73.72414551499992,-42.25066256899993],[-73.72798699799995,-42.24700797299994],[-73.73120367999991,-42.247919433999925],[-73.73211786799993,-42.24554401499995],[-73.73942361799993,-42.2461387969999],[-73.73993954399992,-42.242279150999934],[-73.74258502299995,-42.242850104999945],[-73.74261024499992,-42.2411979499999],[-73.74799357899991,-42.24025451199992],[-73.7481829379999,-42.23898058099991],[-73.7523546459999,-42.23758848199992],[-73.75532953699991,-42.23838574599995],[-73.7560698499999,-42.23661331499994],[-73.7561555979999,-42.23812104499996],[-73.75800124799991,-42.23790365199994],[-73.75718569799994,-42.23559834799994],[-73.75857072499991,-42.236467311999945],[-73.7601268379999,-42.23471851799991],[-73.76261975499995,-42.23452123599992],[-73.76279648399992,-42.23251517299991],[-73.76696778099995,-42.23224521699996],[-73.76797556199995,-42.23038655699992],[-73.76596434099991,-42.23046219999992],[-73.7685873179999,-42.22927044399995],[-73.76781324799992,-42.22846751399993],[-73.77132779199991,-42.22851477599994],[-73.77586306499995,-42.22420631999995],[-73.77959869199992,-42.22393215999995],[-73.77758913899993,-42.22030008799993],[-73.7781235409999,-42.217861634999906],[-73.78203076499994,-42.218444191999936],[-73.7839773039999,-42.22029071199995],[-73.78471592199992,-42.21769499099992],[-73.78296740499991,-42.21602930699993],[-73.78643171899995,-42.21598389899992],[-73.78618383399993,-42.21331976099992],[-73.79068282199995,-42.21284560999993],[-73.79189950099993,-42.2090110659999],[-73.79623745999993,-42.210155577999956],[-73.80058248299991,-42.20750093599992],[-73.8046151339999,-42.200374799999906],[-73.80504478299991,-42.19722505699991],[-73.8039584089999,-42.196100336999905],[-73.80242135399993,-42.19717233599994],[-73.79815768999993,-42.19653903099993],[-73.8004885229999,-42.193292637999946],[-73.80022659199994,-42.19115932299991],[-73.8044116499999,-42.1900323669999],[-73.80650403699991,-42.19295194499995],[-73.80814480299995,-42.19134459299994],[-73.80552375299993,-42.187608439999906],[-73.8077418069999,-42.18576776099991],[-73.80415736999993,-42.18521630899994],[-73.80439624399992,-42.18140559799991],[-73.80309893999993,-42.179024882999954],[-73.80362241499995,-42.17753505399992],[-73.8059370869999,-42.176972194999905],[-73.80818890899991,-42.17883366399991],[-73.80860715699993,-42.176192329999935],[-73.80270132699991,-42.172315488999914],[-73.80893671799993,-42.17213618499994],[-73.81047187999991,-42.17074251199995],[-73.8105222069999,-42.16805664799995],[-73.8133507089999,-42.16370717299992],[-73.81216556699991,-42.16133414099994],[-73.81343260299991,-42.15924518799994],[-73.81313588899991,-42.15593074199995],[-73.81996060699993,-42.154776058999914],[-73.82635952699991,-42.15660797899994],[-73.83182500099991,-42.1520408369999]]]}}]}